NORAD_CAT_ID,OBJECT_NAME,OBJECT_TYPE,EPOCH,MEAN_MOTION,ECCENTRICITY,INCLINATION,RA_OF_ASC_NODE,ARG_OF_PERICENTER,MEAN_ANOMALY,BSTAR,MEAN_MOTION_DOT,MEAN_MOTION_DDOT,TLE_LINE0,TLE_LINE1,TLE_LINE2,SEMIMAJOR_AXIS,PERIOD,APOGEE,PERIGEE,DECAYED
51782.0,STARLINK-3616,PAYLOAD,2023-08-22 04:39:59,15.08844958,0.0001479,53.2162,206.2817,99.3445,260.7714,2.9127e-05,1.76e-06,0.0,0 STARLINK-3616,1 51782U 22017Q   23234.19443568  .00000176  00000-0  29127-4 0  9998,2 51782  53.2162 206.2817 0001479  99.3445 260.7714 15.08844958 83443,6917.865,95.437,540.753,538.707,0.0
51782.0,STARLINK-3616,PAYLOAD,2023-08-23 01:20:00,15.08840549,0.000142,53.2161,202.4178,89.8528,270.2627,-9.3399e-06,-4.37e-06,0.0,0 STARLINK-3616,1 51782U 22017Q   23235.05556075 -.00000437  00000-0 -93399-5 0  9997,2 51782  53.2161 202.4178 0001420  89.8528 270.2627 15.08840549 83577,6917.879,95.438,540.726,538.761,0.0
51782.0,STARLINK-3616,PAYLOAD,2023-08-24 21:50:48,15.08833836,0.0001301,53.217,194.0922,100.6593,259.4546,3.6911e-05,3e-06,0.0,0 STARLINK-3616,1 51782U 22017Q   23236.91028489  .00000300  00000-0  36911-4 0  9999,2 51782  53.2170 194.0922 0001301 100.6593 259.4546 15.08833836 82122,6917.899,95.438,540.664,538.864,0.0
51782.0,STARLINK-3616,PAYLOAD,2023-08-25 02:36:58,15.08831036,0.0001269,53.2171,193.2005,97.0136,263.1,0.00010916,1.449e-05,0.0,0 STARLINK-3616,1 51782U 22017Q   23237.10900489  .00001449  00000-0  10916-3 0  9991,2 51782  53.2171 193.2005 0001269  97.0136 263.1000 15.08831036 83882,6917.908,95.438,540.651,538.895,0.0
51782.0,STARLINK-3616,PAYLOAD,2023-08-25 07:23:07,15.08815424,0.0001445,53.217,192.3075,102.5676,257.5478,0.00041489,6.317e-05,0.0,0 STARLINK-3616,1 51782U 22017Q   23237.30772629  .00006317  00000-0  41489-3 0  9994,2 51782  53.2170 192.3075 0001445 102.5676 257.5478 15.08815424 82186,6917.956,95.439,540.82,538.821,0.0
51782.0,STARLINK-3616,PAYLOAD,2023-08-25 21:41:35,15.088428,0.000124,53.2168,189.631,104.1468,255.9662,7.2577e-05,8.67e-06,0.0,0 STARLINK-3616,1 51782U 22017Q   23237.90387887  .00000867  00000-0  72577-4 0  9995,2 51782  53.2168 189.6310 0001240 104.1468 255.9662 15.08842800 82279,6917.872,95.437,540.595,538.879,0.0
51782.0,STARLINK-3616,PAYLOAD,2023-08-26 00:52:21,15.0883945,0.0001156,53.2165,189.0355,92.5242,267.5882,2.5642e-05,1.2e-06,0.0,0 STARLINK-3616,1 51782U 22017Q   23238.03636443  .00000120  00000-0  25642-4 0  9998,2 51782  53.2165 189.0355 0001156  92.5242 267.5882 15.08839450 84020,6917.882,95.438,540.547,538.947,0.0
51782.0,STARLINK-3616,PAYLOAD,2023-08-26 05:38:31,15.08842502,0.0001327,53.2171,188.144,100.6483,259.4659,6.7643e-05,7.89e-06,0.0,0 STARLINK-3616,1 51782U 22017Q   23238.23508106  .00000789  00000-0  67643-4 0  9992,2 51782  53.2171 188.1440 0001327 100.6483 259.4659 15.08842502 82325,6917.873,95.437,540.656,538.82,0.0
51782.0,STARLINK-3616,PAYLOAD,2023-08-27 02:18:32,15.08838838,0.0001483,53.2178,184.28,100.992,259.1239,5.5348e-05,5.93e-06,0.0,0 STARLINK-3616,1 51782U 22017Q   23239.09620545  .00000593  00000-0  55348-4 0  9991,2 51782  53.2178 184.2800 0001483 100.9920 259.1239 15.08838838 84185,6917.884,95.438,540.775,538.723,0.0
51782.0,STARLINK-3616,PAYLOAD,2023-08-27 05:29:18,15.08840488,0.0001573,53.217,183.6835,104.6822,255.4344,0.00011864,1.601e-05,0.0,0 STARLINK-3616,1 51782U 22017Q   23239.22868270  .00001601  00000-0  11864-3 0  9990,2 51782  53.2170 183.6835 0001573 104.6822 255.4344 15.08840488 82470,6917.879,95.438,540.832,538.656,0.0
51782.0,STARLINK-3616,PAYLOAD,2023-08-28 05:20:04,15.08848308,0.0001375,53.2169,179.2233,96.4561,263.6588,7.6785e-05,9.35e-06,0.0,0 STARLINK-3616,1 51782U 22017Q   23240.22227874  .00000935  00000-0  76785-4 0  9994,2 51782  53.2169 179.2233 0001375  96.4561 263.6588 15.08848308 84358,6917.855,95.437,540.671,538.769,0.0
51782.0,STARLINK-3616,PAYLOAD,2023-08-28 13:17:01,15.08837366,0.0001194,53.2166,177.7353,94.4334,265.6794,1.9075e-06,-2.57e-06,0.0,0 STARLINK-3616,1 51782U 22017Q   23240.55348691 -.00000257  00000-0  19075-5 0  9999,2 51782  53.2166 177.7353 0001194  94.4334 265.6794 15.08837366 84405,6917.888,95.438,540.579,538.927,0.0
51782.0,STARLINK-3616,PAYLOAD,2023-08-28 19:38:34,15.08837369,0.0001257,53.2166,176.5463,93.5934,266.5202,-3.1486e-05,-7.89e-06,0.0,0 STARLINK-3616,1 51782U 22017Q   23240.81844957 -.00000789  00000-0 -31486-4 0  9994,2 51782  53.2166 176.5463 0001257  93.5934 266.5202 15.08837369 82719,6917.888,95.438,540.623,538.884,0.0
51782.0,STARLINK-3616,PAYLOAD,2023-08-29 05:10:52,15.08847417,0.0001358,53.217,174.763,91.2327,268.882,5.1773e-05,5.36e-06,0.0,0 STARLINK-3616,1 51782U 22017Q   23241.21587967  .00000536  00000-0  51773-4 0  9993,2 51782  53.2170 174.7630 0001358  91.2327 268.8820 15.08847417 84508,6917.858,95.437,540.662,538.783,0.0
51782.0,STARLINK-3616,PAYLOAD,2023-08-29 13:07:48,15.08839067,0.0001265,53.2166,173.2759,88.5905,271.5232,-2.8081e-05,-7.35e-06,0.0,0 STARLINK-3616,1 51782U 22017Q   23241.54708719 -.00000735  00000-0 -28081-4 0  9998,2 51782  53.2166 173.2759 0001265  88.5905 271.5232 15.08839067 82820,6917.883,95.438,540.623,538.873,0.0
51782.0,STARLINK-3616,PAYLOAD,2023-08-30 01:50:53,15.08839274,0.0001447,53.2173,170.8963,92.872,267.2438,-4.864e-05,-1.062e-05,0.0,0 STARLINK-3616,1 51782U 22017Q   23242.07701009 -.00001062  00000-0 -48640-4 0  9999,2 51782  53.2173 170.8963 0001447  92.8720 267.2438 15.08839274 84634,6917.883,95.438,540.749,538.747,0.0
51782.0,STARLINK-3616,PAYLOAD,2023-08-31 01:41:39,15.0884345,0.000135,53.2172,166.4359,90.1825,269.9322,0.00013815,1.912e-05,0.0,0 STARLINK-3616,1 51782U 22017Q   23243.07060179  .00001912  00000-0  13815-3 0  9993,2 51782  53.2172 166.4359 0001350  90.1825 269.9322 15.08843450 84781,6917.87,95.437,540.669,538.801,0.0
51782.0,STARLINK-3616,PAYLOAD,2023-09-01 01:32:27,15.08839175,0.0001226,53.2167,161.9761,89.4439,270.6693,9.2826e-05,1.19e-05,0.0,0 STARLINK-3616,1 51782U 22017Q   23244.06420761  .00001190  00000-0  92826-4 0  9998,2 51782  53.2167 161.9761 0001226  89.4439 270.6693 15.08839175 84932,6917.883,95.438,540.596,538.9,0.0
51782.0,STARLINK-3616,PAYLOAD,2023-09-01 11:04:46,15.08842183,0.000116,53.2167,160.1923,84.7349,275.3775,5.2776e-05,5.52e-06,0.0,0 STARLINK-3616,1 51782U 22017Q   23244.46164694  .00000552  00000-0  52776-4 0  9993,2 51782  53.2167 160.1923 0001160  84.7349 275.3775 15.08842183 83269,6917.874,95.437,540.541,538.936,0.0
51782.0,STARLINK-3616,PAYLOAD,2023-09-01 17:26:19,15.08843382,0.0001272,53.2181,159.006,94.9356,265.1781,-2.0736e-05,-6.18e-06,0.0,0 STARLINK-3616,1 51782U 22017Q   23244.72660986 -.00000618  00000-0 -20736-4 0  9993,2 51782  53.2181 159.0060 0001272  94.9356 265.1781 15.08843382 83300,6917.87,95.437,540.615,538.855,0.0
51782.0,STARLINK-3616,PAYLOAD,2023-09-02 10:55:33,15.08836904,0.000123,53.2182,155.7335,83.7199,276.3934,-5.3788e-06,-3.73e-06,0.0,0 STARLINK-3616,1 51782U 22017Q   23245.45525270 -.00000373  00000-0 -53788-5 0  9992,2 51782  53.2182 155.7335 0001230  83.7199 276.3934 15.08836904 85144,6917.89,95.438,540.606,538.904,0.0
51782.0,STARLINK-3616,PAYLOAD,2023-09-03 04:24:47,15.08846594,0.0001316,53.2176,152.4639,83.7814,276.3328,9.5446e-05,1.232e-05,0.0,0 STARLINK-3616,1 51782U 22017Q   23246.18388667  .00001232  00000-0  95446-4 0  9999,2 51782  53.2176 152.4639 0001316  83.7814 276.3328 15.08846594 85252,6917.86,95.437,540.636,538.815,0.0
51782.0,STARLINK-3616,PAYLOAD,2023-09-04 02:40:13,15.08833313,0.0001337,53.2169,148.297,77.2894,282.8248,-4.9171e-05,-1.07e-05,0.0,0 STARLINK-3616,1 51782U 22017Q   23247.11126391 -.00001070  00000-0 -49171-4 0  9993,2 51782  53.2169 148.2970 0001337  77.2894 282.8248 15.08833313 85397,6917.901,95.438,540.691,538.841,0.0
51782.0,STARLINK-3616,PAYLOAD,2023-09-05 02:30:59,15.08849449,0.0001349,53.2176,143.8373,93.5156,266.5991,7.8136e-05,9.56e-06,0.0,0 STARLINK-3616,1 51782U 22017Q   23248.10485014  .00000956  00000-0  78136-4 0  9996,2 51782  53.2176 143.8373 0001349  93.5156 266.5991 15.08849449 85546,6917.852,95.437,540.65,538.783,0.0
51782.0,STARLINK-3616,PAYLOAD,2023-09-06 02:21:46,15.08838532,0.0001385,53.2173,139.3753,94.2948,265.8202,4.9106e-05,4.94e-06,0.0,0 STARLINK-3616,1 51782U 22017Q   23249.09845787  .00000494  00000-0  49106-4 0  9994,2 51782  53.2173 139.3753 0001385  94.2948 265.8202 15.08838532 85696,6917.885,95.438,540.708,538.792,0.0
51782.0,STARLINK-3616,PAYLOAD,2023-09-06 15:04:51,15.08848813,0.0001458,53.2165,136.9973,92.4855,267.6304,-6.85e-06,-3.97e-06,0.0,0 STARLINK-3616,1 51782U 22017Q   23249.62837345 -.00000397  00000-0 -68500-5 0  9998,2 51782  53.2165 136.9973 0001458  92.4855 267.6304 15.08848813 85777,6917.853,95.437,540.727,538.71,0.0
51782.0,STARLINK-3616,PAYLOAD,2023-09-07 02:12:32,15.08853463,0.0001438,53.2169,134.9148,95.6342,264.4814,3.253e-05,2.3e-06,0.0,0 STARLINK-3616,1 51782U 22017Q   23250.09204566  .00000230  00000-0  32530-4 0  9991,2 51782  53.2169 134.9148 0001438  95.6342 264.4814 15.08853463 84112,6917.839,95.437,540.699,538.709,0.0
51782.0,STARLINK-3616,PAYLOAD,2023-09-08 02:03:21,15.08832734,0.0001451,53.2166,130.4533,104.8877,255.2275,-3.8101e-05,-8.94e-06,0.0,0 STARLINK-3616,1 51782U 22017Q   23251.08566026 -.00000894  00000-0 -38101-4 0  9991,2 51782  53.2166 130.4533 0001451 104.8877 255.2275 15.08832734 85993,6917.903,95.438,540.771,538.764,0.0
51782.0,STARLINK-3616,PAYLOAD,2023-09-08 21:07:58,15.08840103,0.0001388,53.2167,126.8849,109.6851,250.4291,-3.0974e-05,-7.81e-06,0.0,0 STARLINK-3616,1 51782U 22017Q   23251.88053653 -.00000781  00000-0 -30974-4 0  9991,2 51782  53.2167 126.8849 0001388 109.6851 250.4291 15.08840103 84383,6917.88,95.438,540.705,538.785,0.0
51782.0,STARLINK-3616,PAYLOAD,2023-09-09 00:18:44,15.08841738,0.0001316,53.2173,126.2934,99.1815,260.9326,-1.5012e-06,-3.12e-06,0.0,0 STARLINK-3616,1 51782U 22017Q   23252.01301554 -.00000312  00000-0 -15012-5 0  9990,2 51782  53.2173 126.2934 0001316  99.1815 260.9326 15.08841738 86138,6917.875,95.437,540.65,538.83,0.0
